{
  "type": "FeatureCollection",
  "features": [
    {
      "type": "Feature",
      "properties": {
        "norad_id": 33376,
        "name": "GALAXY 19 (G-19)",
        "group": "intelsat",
        "lat": -0.015123010087520724,
        "lon": 142.44569004109556,
        "alt_km": 35794.37007432662,
        "timestamp": "2025-12-23T09:49:06.743937+00:00",
        "meta_object_name": "GALAXY 19 (G-19)",
        "meta_object_id": "2008-045A",
        "meta_epoch": "2025-12-22T21:15:45.401760",
        "meta_mean_motion": 1.00271025,
        "meta_eccentricity": 0.00026076,
        "meta_inclination": 0.0467,
        "meta_ra_of_asc_node": 265.8558,
        "meta_arg_of_pericenter": 13.4684,
        "meta_mean_anomaly": 34.2956,
        "meta_ephemeris_type": 0,
        "meta_classification_type": "U",
        "meta_norad_cat_id": 33376,
        "meta_element_set_no": 999,
        "meta_rev_at_epoch": 6313,
        "meta_bstar": 0,
        "meta_mean_motion_dot": -1.18e-06,
        "meta_mean_motion_ddot": 0,
        "tle_line1": "1 33376U 08045A   25356.88594215 -.00000118  00000+0  00000+0 0  9991",
        "tle_line2": "2 33376   0.0467 265.8558 0002607  13.4684  34.2956  1.00271025 63131"
      },
      "geometry": {
        "type": "Point",
        "coordinates": [
          142.44569004109556,
          -0.015123010087520724
        ]
      }
    },
    {
      "type": "Feature",
      "properties": {
        "norad_id": 35493,
        "name": "FM-5",
        "group": "intelsat",
        "lat": -0.002885540597423986,
        "lon": 153.33580061886488,
        "alt_km": 35781.62865464456,
        "timestamp": "2025-12-23T09:49:06.743949+00:00",
        "meta_object_name": "FM-5",
        "meta_object_id": "2009-034A",
        "meta_epoch": "2025-12-22T10:07:05.157408",
        "meta_mean_motion": 1.00271549,
        "meta_eccentricity": 0.00010976,
        "meta_inclination": 0.0241,
        "meta_ra_of_asc_node": 288.3712,
        "meta_arg_of_pericenter": 231.211,
        "meta_mean_anomaly": 357.2827,
        "meta_ephemeris_type": 0,
        "meta_classification_type": "U",
        "meta_norad_cat_id": 35493,
        "meta_element_set_no": 999,
        "meta_rev_at_epoch": 4487,
        "meta_bstar": 0,
        "meta_mean_motion_dot": -1.79e-06,
        "meta_mean_motion_ddot": 0,
        "tle_line1": "1 35493U 09034A   25356.42158747 -.00000179  00000+0  00000+0 0  9995",
        "tle_line2": "2 35493   0.0241 288.3712 0001097 231.2110 357.2827  1.00271549 44877"
      },
      "geometry": {
        "type": "Point",
        "coordinates": [
          153.33580061886488,
          -0.002885540597423986
        ]
      }
    },
    {
      "type": "Feature",
      "properties": {
        "norad_id": 36097,
        "name": "INTELSAT 14 (IS-14)",
        "group": "intelsat",
        "lat": -0.003975269395705949,
        "lon": -165.56293318959268,
        "alt_km": 35786.58815568698,
        "timestamp": "2025-12-23T09:49:06.743961+00:00",
        "meta_object_name": "INTELSAT 14 (IS-14)",
        "meta_object_id": "2009-064A",
        "meta_epoch": "2025-12-22T20:12:35.983296",
        "meta_mean_motion": 1.00269853,
        "meta_eccentricity": 0.00025302,
        "meta_inclination": 0.0062,
        "meta_ra_of_asc_node": 5.7681,
        "meta_arg_of_pericenter": 278.2453,
        "meta_mean_anomaly": 65.7765,
        "meta_ephemeris_type": 0,
        "meta_classification_type": "U",
        "meta_norad_cat_id": 36097,
        "meta_element_set_no": 999,
        "meta_rev_at_epoch": 5883,
        "meta_bstar": 0,
        "meta_mean_motion_dot": -2.52e-06,
        "meta_mean_motion_ddot": 0,
        "tle_line1": "1 36097U 09064A   25356.84208314 -.00000252  00000+0  00000+0 0  9993",
        "tle_line2": "2 36097   0.0062   5.7681 0002530 278.2453  65.7765  1.00269853 58837"
      },
      "geometry": {
        "type": "Point",
        "coordinates": [
          -165.56293318959268,
          -0.003975269395705949
        ]
      }
    },
    {
      "type": "Feature",
      "properties": {
        "norad_id": 36106,
        "name": "INTELSAT 15 (IS-15)",
        "group": "intelsat",
        "lat": -0.029171166206118152,
        "lon": -35.35098778301018,
        "alt_km": 35779.1403644792,
        "timestamp": "2025-12-23T09:49:06.743973+00:00",
        "meta_object_name": "INTELSAT 15 (IS-15)",
        "meta_object_id": "2009-067A",
        "meta_epoch": "2025-12-22T22:07:47.917632",
        "meta_mean_motion": 1.00271269,
        "meta_eccentricity": 0.00022302,
        "meta_inclination": 0.0177,
        "meta_ra_of_asc_node": 8.1154,
        "meta_arg_of_pericenter": 275.52,
        "meta_mean_anomaly": 225.1959,
        "meta_ephemeris_type": 0,
        "meta_classification_type": "U",
        "meta_norad_cat_id": 36106,
        "meta_element_set_no": 999,
        "meta_rev_at_epoch": 3946,
        "meta_bstar": 0,
        "meta_mean_motion_dot": -1.64e-06,
        "meta_mean_motion_ddot": 0,
        "tle_line1": "1 36106U 09067A   25356.92208238 -.00000164  00000+0  00000+0 0  9993",
        "tle_line2": "2 36106   0.0177   8.1154 0002230 275.5200 225.1959  1.00271269 39463"
      },
      "geometry": {
        "type": "Point",
        "coordinates": [
          -35.35098778301018,
          -0.029171166206118152
        ]
      }
    },
    {
      "type": "Feature",
      "properties": {
        "norad_id": 36131,
        "name": "DIRECTV 12",
        "group": "intelsat",
        "lat": 0.015933869500954115,
        "lon": 136.76539237956538,
        "alt_km": 35787.729737447255,
        "timestamp": "2025-12-23T09:49:06.743985+00:00",
        "meta_object_name": "DIRECTV 12",
        "meta_object_id": "2009-075A",
        "meta_epoch": "2025-12-22T14:23:17.397024",
        "meta_mean_motion": 1.00272947,
        "meta_eccentricity": 4.824e-05,
        "meta_inclination": 0.0135,
        "meta_ra_of_asc_node": 97.4838,
        "meta_arg_of_pericenter": 233.73,
        "meta_mean_anomaly": 233.2998,
        "meta_ephemeris_type": 0,
        "meta_classification_type": "U",
        "meta_norad_cat_id": 36131,
        "meta_element_set_no": 999,
        "meta_rev_at_epoch": 4478,
        "meta_bstar": 0,
        "meta_mean_motion_dot": -8.2e-07,
        "meta_mean_motion_ddot": 0,
        "tle_line1": "1 36131U 09075A   25356.59950691 -.00000082  00000+0  00000+0 0  9999",
        "tle_line2": "2 36131   0.0135  97.4838 0000482 233.7300 233.2998  1.00272947 44787"
      },
      "geometry": {
        "type": "Point",
        "coordinates": [
          136.76539237956538,
          0.015933869500954115
        ]
      }
    },
    {
      "type": "Feature",
      "properties": {
        "norad_id": 36397,
        "name": "INTELSAT 16 (IS-16)",
        "group": "intelsat",
        "lat": -0.00028198931896815843,
        "lon": 163.25390093004182,
        "alt_km": 35789.09192647667,
        "timestamp": "2025-12-23T09:49:06.743997+00:00",
        "meta_object_name": "INTELSAT 16 (IS-16)",
        "meta_object_id": "2010-006A",
        "meta_epoch": "2025-12-22T21:21:44.828352",
        "meta_mean_motion": 1.00270502,
        "meta_eccentricity": 0.00018372,
        "meta_inclination": 0.0137,
        "meta_ra_of_asc_node": 321.663,
        "meta_arg_of_pericenter": 311.1052,
        "meta_mean_anomaly": 63.162,
        "meta_ephemeris_type": 0,
        "meta_classification_type": "U",
        "meta_norad_cat_id": 36397,
        "meta_element_set_no": 999,
        "meta_rev_at_epoch": 5788,
        "meta_bstar": 0,
        "meta_mean_motion_dot": -2.23e-06,
        "meta_mean_motion_ddot": 0,
        "tle_line1": "1 36397U 10006A   25356.89010218 -.00000223  00000+0  00000+0 0  9991",
        "tle_line2": "2 36397   0.0137 321.6630 0001837 311.1052  63.1620  1.00270502 57887"
      },
      "geometry": {
        "type": "Point",
        "coordinates": [
          163.25390093004182,
          -0.00028198931896815843
        ]
      }
    },
    {
      "type": "Feature",
      "properties": {
        "norad_id": 37185,
        "name": "XM-5",
        "group": "intelsat",
        "lat": -0.012381394948019113,
        "lon": 124.27515701251652,
        "alt_km": 35777.673130031384,
        "timestamp": "2025-12-23T09:49:06.744009+00:00",
        "meta_object_name": "XM-5",
        "meta_object_id": "2010-053A",
        "meta_epoch": "2025-12-22T10:47:31.225344",
        "meta_mean_motion": 1.00272,
        "meta_eccentricity": 0.00021803,
        "meta_inclination": 0.0677,
        "meta_ra_of_asc_node": 270.2646,
        "meta_arg_of_pericenter": 239.2198,
        "meta_mean_anomaly": 348.4632,
        "meta_ephemeris_type": 0,
        "meta_classification_type": "U",
        "meta_norad_cat_id": 37185,
        "meta_element_set_no": 999,
        "meta_rev_at_epoch": 5571,
        "meta_bstar": 0,
        "meta_mean_motion_dot": -1e-08,
        "meta_mean_motion_ddot": 0,
        "tle_line1": "1 37185U 10053A   25356.44966696 -.00000001  00000+0  00000+0 0  9994",
        "tle_line2": "2 37185   0.0677 270.2646 0002180 239.2198 348.4632  1.00272000 55718"
      },
      "geometry": {
        "type": "Point",
        "coordinates": [
          124.27515701251652,
          -0.012381394948019113
        ]
      }
    }
  ]
}